[{"OBJECT_NAME":"STARLINK-5411","OBJECT_ID":"2022-177AX","EPOCH":"2026-01-22T08:16:35.663808","MEAN_MOTION":15.02524901,"ECCENTRICITY":0.00013343,"INCLINATION":43.0044,"RA_OF_ASC_NODE":12.1638,"ARG_OF_PERICENTER":280.4113,"MEAN_ANOMALY":79.6579,"EPHEMERIS_TYPE":0,"CLASSIFICATION_TYPE":"U","NORAD_CAT_ID":54865,"ELEMENT_SET_NO":999,"REV_AT_EPOCH":17013,"BSTAR":-0.00012766576,"MEAN_MOTION_DOT":-1.927e-5,"MEAN_MOTION_DDOT":0},{"OBJECT_NAME":"STARLINK-5398","OBJECT_ID":"2022-177AY","EPOCH":"2026-01-22T15:38:28.485312","MEAN_MOTION":15.02531382,"ECCENTRICITY":0.00014323,"INCLINATION":43.0065,"RA_OF_ASC_NODE":10.1613,"ARG_OF_PERICENTER":279.8022,"MEAN_ANOMALY":80.2658,"EPHEMERIS_TYPE":0,"CLASSIFICATION_TYPE":"U","NORAD_CAT_ID":54866,"ELEMENT_SET_NO":999,"REV_AT_EPOCH":17018,"BSTAR":-0.00020345351,"MEAN_MOTION_DOT":-2.951e-5,"MEAN_MOTION_DDOT":0},{"OBJECT_NAME":"STARLINK-5396","OBJECT_ID":"2022-177AZ","EPOCH":"2026-01-22T22:18:57.598848","MEAN_MOTION":15.02534651,"ECCENTRICITY":0.00021592,"INCLINATION":43.0064,"RA_OF_ASC_NODE":8.8095,"ARG_OF_PERICENTER":274.3958,"MEAN_ANOMALY":85.6638,"EPHEMERIS_TYPE":0,"CLASSIFICATION_TYPE":"U","NORAD_CAT_ID":54867,"ELEMENT_SET_NO":999,"REV_AT_EPOCH":17022,"BSTAR":0.00082142134,"MEAN_MOTION_DOT":0.00010909,"MEAN_MOTION_DDOT":0},{"OBJECT_NAME":"STARLINK-5379","OBJECT_ID":"2022-177BA","EPOCH":"2026-01-22T15:32:04.780320","MEAN_MOTION":15.02529777,"ECCENTRICITY":0.00013755,"INCLINATION":43.0046,"RA_OF_ASC_NODE":10.1325,"ARG_OF_PERICENTER":259.6442,"MEAN_ANOMALY":100.4245,"EPHEMERIS_TYPE":0,"CLASSIFICATION_TYPE":"U","NORAD_CAT_ID":54868,"ELEMENT_SET_NO":999,"REV_AT_EPOCH":17018,"BSTAR":-0.00017087947,"MEAN_MOTION_DOT":-2.511e-5,"MEAN_MOTION_DDOT":0},{"OBJECT_NAME":"STARLINK-5402","OBJECT_ID":"2022-177BB","EPOCH":"2026-01-22T15:46:28.200576","MEAN_MOTION":15.02530201,"ECCENTRICITY":0.00010516,"INCLINATION":43.0029,"RA_OF_ASC_NODE":10.2077,"ARG_OF_PERICENTER":237.5624,"MEAN_ANOMALY":122.5117,"EPHEMERIS_TYPE":0,"CLASSIFICATION_TYPE":"U","NORAD_CAT_ID":54869,"ELEMENT_SET_NO":999,"REV_AT_EPOCH":17018,"BSTAR":-9.2228315e-5,"MEAN_MOTION_DOT":-1.449e-5,"MEAN_MOTION_DDOT":0},{"OBJECT_NAME":"STARLINK-5401","OBJECT_ID":"2022-177BC","EPOCH":"2026-01-22T15:35:16.676448","MEAN_MOTION":15.02529037,"ECCENTRICITY":0.00012957,"INCLINATION":43.0058,"RA_OF_ASC_NODE":10.1487,"ARG_OF_PERICENTER":279.1601,"MEAN_ANOMALY":80.9094,"EPHEMERIS_TYPE":0,"CLASSIFICATION_TYPE":"U","NORAD_CAT_ID":54870,"ELEMENT_SET_NO":999,"REV_AT_EPOCH":17018,"BSTAR":1.062424e-6,"MEAN_MOTION_DOT":-1.89e-6,"MEAN_MOTION_DDOT":0},{"OBJECT_NAME":"STARLINK-5397","OBJECT_ID":"2022-177BD","EPOCH":"2026-01-22T23:46:42.049344","MEAN_MOTION":15.02516763,"ECCENTRICITY":0.0001667,"INCLINATION":43.004,"RA_OF_ASC_NODE":8.409,"ARG_OF_PERICENTER":254.5363,"MEAN_ANOMALY":105.5296,"EPHEMERIS_TYPE":0,"CLASSIFICATION_TYPE":"U","NORAD_CAT_ID":54871,"ELEMENT_SET_NO":999,"REV_AT_EPOCH":17023,"BSTAR":0.00035239162,"MEAN_MOTION_DOT":4.557e-5,"MEAN_MOTION_DDOT":0},{"OBJECT_NAME":"STARLINK-5390","OBJECT_ID":"2022-177BE","EPOCH":"2026-01-23T00:00:02.999808","MEAN_MOTION":15.94634342,"ECCENTRICITY":0.00011238,"INCLINATION":42.9998,"RA_OF_ASC_NODE":346.6966,"ARG_OF_PERICENTER":221.4752,"MEAN_ANOMALY":219.7592,"EPHEMERIS_TYPE":0,"CLASSIFICATION_TYPE":"U","NORAD_CAT_ID":54872,"ELEMENT_SET_NO":999,"REV_AT_EPOCH":592,"BSTAR":0.0025124389,"MEAN_MOTION_DOT":0.00986798,"MEAN_MOTION_DDOT":0.00043968655},{"OBJECT_NAME":"STARLINK-5091","OBJECT_ID":"2022-177BF","EPOCH":"2026-01-22T15:27:17.244576","MEAN_MOTION":15.02506588,"ECCENTRICITY":0.00011181,"INCLINATION":43.004,"RA_OF_ASC_NODE":10.1072,"ARG_OF_PERICENTER":249.0383,"MEAN_ANOMALY":111.034,"EPHEMERIS_TYPE":0,"CLASSIFICATION_TYPE":"U","NORAD_CAT_ID":54873,"ELEMENT_SET_NO":999,"REV_AT_EPOCH":17018,"BSTAR":0.00018262341,"MEAN_MOTION_DOT":2.262e-5,"MEAN_MOTION_DDOT":0},{"OBJECT_NAME":"STARLINK-5277","OBJECT_ID":"2023-010A","EPOCH":"2026-01-22T14:58:11.441856","MEAN_MOTION":14.98331746,"ECCENTRICITY":0.0003091,"INCLINATION":70.0005,"RA_OF_ASC_NODE":160.6867,"ARG_OF_PERICENTER":272.8399,"MEAN_ANOMALY":87.2406,"EPHEMERIS_TYPE":0,"CLASSIFICATION_TYPE":"U","NORAD_CAT_ID":55269,"ELEMENT_SET_NO":999,"REV_AT_EPOCH":16616,"BSTAR":-8.9875827e-5,"MEAN_MOTION_DOT":-1.165e-5,"MEAN_MOTION_DDOT":0},{"OBJECT_NAME":"STARLINK-5306","OBJECT_ID":"2023-010C","EPOCH":"2026-01-22T15:04:12.356256","MEAN_MOTION":14.98329824,"ECCENTRICITY":0.00030899,"INCLINATION":69.9999,"RA_OF_ASC_NODE":160.7012,"ARG_OF_PERICENTER":268.7171,"MEAN_ANOMALY":91.3634,"EPHEMERIS_TYPE":0,"CLASSIFICATION_TYPE":"U","NORAD_CAT_ID":55271,"ELEMENT_SET_NO":999,"REV_AT_EPOCH":16588,"BSTAR":-0.00010798742,"MEAN_MOTION_DOT":-1.381e-5,"MEAN_MOTION_DDOT":0},{"OBJECT_NAME":"STARLINK-5310","OBJECT_ID":"2023-010D","EPOCH":"2026-01-22T19:28:35.398848","MEAN_MOTION":14.98316819,"ECCENTRICITY":0.00024966,"INCLINATION":70.0007,"RA_OF_ASC_NODE":160.1404,"ARG_OF_PERICENTER":268.9384,"MEAN_ANOMALY":91.1489,"EPHEMERIS_TYPE":0,"CLASSIFICATION_TYPE":"U","NORAD_CAT_ID":55272,"ELEMENT_SET_NO":999,"REV_AT_EPOCH":16591,"BSTAR":-0.00018259566,"MEAN_MOTION_DOT":-2.27e-5,"MEAN_MOTION_DDOT":0},{"OBJECT_NAME":"STARLINK-5291","OBJECT_ID":"2023-010E","EPOCH":"2026-01-22T18:52:27.990048","MEAN_MOTION":14.98344855,"ECCENTRICITY":0.0003133,"INCLINATION":70.0009,"RA_OF_ASC_NODE":160.0541,"ARG_OF_PERICENTER":267.0422,"MEAN_ANOMALY":93.0379,"EPHEMERIS_TYPE":0,"CLASSIFICATION_TYPE":"U","NORAD_CAT_ID":55273,"ELEMENT_SET_NO":999,"REV_AT_EPOCH":16591,"BSTAR":7.3141417e-5,"MEAN_MOTION_DOT":7.8e-6,"MEAN_MOTION_DDOT":0},{"OBJECT_NAME":"STARLINK-5236","OBJECT_ID":"2023-010F","EPOCH":"2026-01-22T17:58:07.952160","MEAN_MOTION":14.98326227,"ECCENTRICITY":0.00030749,"INCLINATION":70.0004,"RA_OF_ASC_NODE":140.4533,"ARG_OF_PERICENTER":268.4405,"MEAN_ANOMALY":91.6402,"EPHEMERIS_TYPE":0,"CLASSIFICATION_TYPE":"U","NORAD_CAT_ID":55274,"ELEMENT_SET_NO":999,"REV_AT_EPOCH":16639,"BSTAR":-6.8975431e-5,"MEAN_MOTION_DOT":-9.16e-6,"MEAN_MOTION_DDOT":0},{"OBJECT_NAME":"STARLINK-5260","OBJECT_ID":"2023-010G","EPOCH":"2026-01-22T17:46:20.450208","MEAN_MOTION":14.98371467,"ECCENTRICITY":0.00031447,"INCLINATION":70.0036,"RA_OF_ASC_NODE":140.4254,"ARG_OF_PERICENTER":274.3541,"MEAN_ANOMALY":85.7258,"EPHEMERIS_TYPE":0,"CLASSIFICATION_TYPE":"U","NORAD_CAT_ID":55275,"ELEMENT_SET_NO":999,"REV_AT_EPOCH":16639,"BSTAR":0.0027094112,"MEAN_MOTION_DOT":0.0003242,"MEAN_MOTION_DDOT":0},{"OBJECT_NAME":"STARLINK-5261","OBJECT_ID":"2023-010H","EPOCH":"2026-01-22T17:46:02.203392","MEAN_MOTION":14.9836227,"ECCENTRICITY":0.00029844,"INCLINATION":70.0012,"RA_OF_ASC_NODE":140.4252,"ARG_OF_PERICENTER":268.7724,"MEAN_ANOMALY":91.3093,"EPHEMERIS_TYPE":0,"CLASSIFICATION_TYPE":"U","NORAD_CAT_ID":55276,"ELEMENT_SET_NO":999,"REV_AT_EPOCH":16638,"BSTAR":0.00021562995,"MEAN_MOTION_DOT":2.483e-5,"MEAN_MOTION_DDOT":0},{"OBJECT_NAME":"STARLINK-5299","OBJECT_ID":"2023-010J","EPOCH":"2026-01-22T19:34:34.347648","MEAN_MOTION":14.98329686,"ECCENTRICITY":0.00029033,"INCLINATION":70.0008,"RA_OF_ASC_NODE":160.1527,"ARG_OF_PERICENTER":273.2689,"MEAN_ANOMALY":86.8137,"EPHEMERIS_TYPE":0,"CLASSIFICATION_TYPE":"U","NORAD_CAT_ID":55277,"ELEMENT_SET_NO":999,"REV_AT_EPOCH":16591,"BSTAR":-6.8498054e-5,"MEAN_MOTION_DOT":-9.1e-6,"MEAN_MOTION_DDOT":0},{"OBJECT_NAME":"STARLINK-5289","OBJECT_ID":"2023-010K","EPOCH":"2026-01-22T15:58:15.572064","MEAN_MOTION":14.98340143,"ECCENTRICITY":0.00030834,"INCLINATION":70.0006,"RA_OF_ASC_NODE":160.4295,"ARG_OF_PERICENTER":271.4239,"MEAN_ANOMALY":88.6567,"EPHEMERIS_TYPE":0,"CLASSIFICATION_TYPE":"U","NORAD_CAT_ID":55278,"ELEMENT_SET_NO":999,"REV_AT_EPOCH":16588,"BSTAR":-5.8165375e-5,"MEAN_MOTION_DOT":-7.87e-6,"MEAN_MOTION_DDOT":0},{"OBJECT_NAME":"STARLINK-5331","OBJECT_ID":"2023-010M","EPOCH":"2026-01-22T18:28:29.417088","MEAN_MOTION":14.98334416,"ECCENTRICITY":0.00030724,"INCLINATION":70.0004,"RA_OF_ASC_NODE":160.3839,"ARG_OF_PERICENTER":268.1486,"MEAN_ANOMALY":91.9321,"EPHEMERIS_TYPE":0,"CLASSIFICATION_TYPE":"U","NORAD_CAT_ID":55280,"ELEMENT_SET_NO":999,"REV_AT_EPOCH":16589,"BSTAR":-2.6151294e-5,"MEAN_MOTION_DOT":-4.05e-6,"MEAN_MOTION_DDOT":0},{"OBJECT_NAME":"STARLINK-5298","OBJECT_ID":"2023-010N","EPOCH":"2026-01-22T19:22:32.964672","MEAN_MOTION":14.98330164,"ECCENTRICITY":0.00031825,"INCLINATION":70.0006,"RA_OF_ASC_NODE":160.1219,"ARG_OF_PERICENTER":273.0832,"MEAN_ANOMALY":86.9963,"EPHEMERIS_TYPE":0,"CLASSIFICATION_TYPE":"U","NORAD_CAT_ID":55281,"ELEMENT_SET_NO":999,"REV_AT_EPOCH":16590,"BSTAR":-4.8584277e-5,"MEAN_MOTION_DOT":-6.73e-6,"MEAN_MOTION_DDOT":0},{"OBJECT_NAME":"STARLINK-5330","OBJECT_ID":"2023-010P","EPOCH":"2026-01-22T18:46:17.625216","MEAN_MOTION":14.98845686,"ECCENTRICITY":0.00056803,"INCLINATION":70.0021,"RA_OF_ASC_NODE":160.0311,"ARG_OF_PERICENTER":285.3471,"MEAN_ANOMALY":74.7061,"EPHEMERIS_TYPE":0,"CLASSIFICATION_TYPE":"U","NORAD_CAT_ID":55282,"ELEMENT_SET_NO":999,"REV_AT_EPOCH":16590,"BSTAR":0.0094237668,"MEAN_MOTION_DOT":0.00115782,"MEAN_MOTION_DDOT":0},{"OBJECT_NAME":"STARLINK-5317","OBJECT_ID":"2023-010Q","EPOCH":"2026-01-22T16:04:13.008000","MEAN_MOTION":14.98362604,"ECCENTRICITY":0.00026024,"INCLINATION":70.0006,"RA_OF_ASC_NODE":160.4446,"ARG_OF_PERICENTER":275.2254,"MEAN_ANOMALY":84.8608,"EPHEMERIS_TYPE":0,"CLASSIFICATION_TYPE":"U","NORAD_CAT_ID":55283,"ELEMENT_SET_NO":999,"REV_AT_EPOCH":16588,"BSTAR":0.00067566776,"MEAN_MOTION_DOT":7.985e-5,"MEAN_MOTION_DDOT":0},{"OBJECT_NAME":"STARLINK-5337","OBJECT_ID":"2023-010R","EPOCH":"2026-01-22T15:34:12.993600","MEAN_MOTION":14.98326704,"ECCENTRICITY":0.00035349,"INCLINATION":70.0001,"RA_OF_ASC_NODE":160.3662,"ARG_OF_PERICENTER":275.8145,"MEAN_ANOMALY":84.2611,"EPHEMERIS_TYPE":0,"CLASSIFICATION_TYPE":"U","NORAD_CAT_ID":55284,"ELEMENT_SET_NO":999,"REV_AT_EPOCH":16587,"BSTAR":-4.162391e-6,"MEAN_MOTION_DOT":-1.43e-6,"MEAN_MOTION_DDOT":0}]
